BEIDOU-2 IGSO-5         
1 37948U 11073A   26168.70024432 -.00000182  00000+0  00000+0 0  9998
2 37948  47.6768 271.5389 0113960 221.7300 116.5044  1.00272773 53133
LUCH-5A                 
1 37951U 11074B   26168.51294725 -.00000059  00000+0  00000+0 0  9999
2 37951   8.7555  73.8025 0002278  25.9326 157.6332  1.00270251 53056
BEIDOU-2 G5             
1 38091U 12008A   26169.12229777  .00000050  00000+0  00000+0 0  9996
2 38091   3.5766  69.6899 0009098 272.7139  26.6429  1.00272074 52373
BEIDOU-2 M3             
1 38250U 12018A   26169.26260470 -.00000077  00000+0  00000+0 0  9994
2 38250  55.7572 304.8393 0020122 273.7877  85.9718  1.86229682 95960
BEIDOU-2 M4             
1 38251U 12018B   26167.58401999 -.00000071  00000+0  00000+0 0  9995
2 38251  55.6586 304.1100 0011291 275.7806  84.0759  1.86229375 95936
SES-5                   
1 38652U 12036A   26168.11356269  .00000030  00000+0  00000+0 0  9993
2 38652   0.0486 314.5575 0001758 131.9060 224.7707  1.00270066 44453
BEIDOU-2 M6             
1 38775U 12050B   26168.90464876 -.00000054  00000+0  00000+0 0  9993
2 38775  56.5449  62.8706 0013670 357.5201   2.5153  1.86230869 93320
GSAT-10                 
1 38779U 12051B   26168.41421902 -.00000169  00000+0  00000+0 0  9994
2 38779   0.0798 262.4016 0007809 185.0028  50.3859  1.00269883 50102
NAVSTAR 67 (USA 239)    
1 38833U 12053A   26168.81475344  .00000040  00000+0  00000+0 0  9997
2 38833  53.5862 143.5736 0180336  65.7640 296.0730  2.00567437 99452
GSAT0103 (GALILEO-FM3)  
1 38857U 12055A   26168.47561804 -.00000011  00000+0  00000+0 0  9993
2 38857  55.8068 101.5377 0004771 306.3432  53.5821  1.70473345 85011
BEIDOU-2 G6             
1 38953U 12059A   26168.86460605 -.00000183  00000+0  00000+0 0  9994
2 38953   4.4232  73.5129 0009595 324.1649 263.7310  1.00271808 49911
LUCH-5B                 
1 38977U 12061A   26168.96489115 -.00000148  00000+0  00000+0 0  9992
2 38977  10.4865  49.8738 0002452 151.1367  36.2873  1.00272021 49610
COSMOS 2485 [GLONASS-M] 
1 39155U 13019A   26167.91000455 -.00000020  00000+0  00000+0 0  9994
2 39155  65.4195  73.6140 0023135 234.1379 125.6814  2.13103258102273
NAVSTAR 68 (USA 242)    
1 39166U 13023A   26169.18033295 -.00000036  00000+0  00000+0 0  9997
2 39166  54.5032 268.9332 0141535  51.0526 310.2390  2.00563408 95906
IRNSS-1A                
1 39199U 13034A   26160.59779131  .00000070  00000+0  00000+0 0  9994
2 39199  35.7049  63.9797 0017411 184.2474 279.8453  1.00272948 47299
NAVSTAR 69 (USA 248)    
1 39533U 14008A   26169.18197315  .00000046  00000+0  00000+0 0  9993
2 39533  53.6548 149.2790 0084223 231.2920 127.9245  2.00559807 89706
ASTRA 5B                
1 39617U 14011B   26167.97464670  .00000134  00000+0  00000+0 0  9994
2 39617   0.0707 307.1426 0001863 147.0318 185.4434  1.00272224 44666
COSMOS 2492 [GLONASS-M] 
1 39620U 14012A   26169.27664963 -.00000055  00000+0  00000+0 0  9994
2 39620  65.2971 313.8989 0010348 324.5914  35.3281  2.13103143 95269
IRNSS-1B                
1 39635U 14017A   26168.76521993  .00000118  00000+0  00000+0 0  9992
2 39635  28.9211 240.3934 0023109 190.0096 166.2505  1.00276545 44795
LUCH-5V                 
1 39727U 14023A   26169.12949113 -.00000277  00000+0  00000+0 0  9997
2 39727   5.1354  69.7329 0001826  49.8424 288.1297  1.00274015 44366
NAVSTAR 70 (USA 251)    
1 39741U 14026A   26167.96172325 -.00000084  00000+0  00000+0 0  9995
2 39741  56.4984 331.5261 0038167 326.5610  33.1892  2.00560889 88539
COSMOS 2500 [GLONASS-M] 
1 40001U 14032A   26168.97713995 -.00000054  00000+0  00000+0 0  9996
2 40001  65.2318 313.6565 0007370 184.7400 175.2410  2.13105710 93475
NAVSTAR 71 (USA 256)    
1 40105U 14045A   26168.05349414 -.00000021  00000+0  00000+0 0  9999
2 40105  55.3532  88.4703 0033283 118.2771 242.0574  2.00558324 86075
GSAT0201 (GALILEO 5)    
1 40128U 14050A   26168.41693638 -.00000052  00000+0  00000+0 0  9994
2 40128  48.8753 273.4270 1674557 179.4035 180.8790  1.85519962 78320
GSAT0202 (GALILEO 6)    
1 40129U 14050B   26169.21145488 -.00000058  00000+0  00000+0 0  9995
2 40129  48.8910 272.4799 1675952 180.1594 179.8332  1.85520552 80500
IRNSS-1C                
1 40269U 14061A   26168.77066078 -.00000169  00000+0  00000+0 0  9992
2 40269   6.5191  88.9202 0022709   2.5065 175.0010  1.00269240 42691
NAVSTAR 72 (USA 258)    
1 40294U 14068A   26168.92054840 -.00000079  00000+0  00000+0 0  9998
2 40294  56.9881  30.9264 0067071  70.6155 290.1646  2.00576133 85229
COSMOS 2501 [GLONASS-K] 
1 40315U 14075A   26168.30070612  .00000063  00000+0  00000+0 0  9999
2 40315  63.6163 190.3680 0022630 212.5057 147.4049  2.13101233 89857
NAVSTAR 73 (USA 260)    
1 40534U 15013A   26169.05965266  .00000038  00000+0  00000+0 0  9998
2 40534  53.1678 204.1414 0109539  40.1376 320.7317  2.00551310 81843
GSAT0203 (GALILEO 7)    
1 40544U 15017A   26166.45306799 -.00000083  00000+0  00000+0 0  9995
2 40544  56.7863 341.6427 0002092 278.6810  81.2938  1.70475984 69175
GSAT0204 (GALILEO 8)    
1 40545U 15017B   26168.46859940 -.00000091  00000+0  00000+0 0  9999
2 40545  56.7938 341.6062 0001909 248.2807 111.6927  1.70475617 32257
