OBJECT_NAME,OBJECT_ID,EPOCH,MEAN_MOTION,ECCENTRICITY,INCLINATION,RA_OF_ASC_NODE,ARG_OF_PERICENTER,MEAN_ANOMALY,EPHEMERIS_TYPE,CLASSIFICATION_TYPE,NORAD_CAT_ID,ELEMENT_SET_NO,REV_AT_EPOCH,BSTAR,MEAN_MOTION_DOT,MEAN_MOTION_DDOT
BEIDOU-2 IGSO-5 (C10),2011-073A,2026-06-17T16:48:21.109248,1.00272773,.01139606,47.6768,271.5389,221.7300,116.5044,0,U,37948,999,5313,0,-.182E-5,0
LUCH 5A (SDCM/PRN 140),2011-074B,2026-06-17T12:18:38.642400,1.00270251,.00022789,8.7555,73.8025,25.9326,157.6332,0,U,37951,999,5305,0,-.59E-6,0
BEIDOU-2 G5 (C05),2012-008A,2026-06-18T02:56:06.527328,1.00272074,.00090985,3.5766,69.6899,272.7139,26.6429,0,U,38091,999,5237,0,.5E-6,0
BEIDOU-2 M3 (C11),2012-018A,2026-06-18T06:18:09.046080,1.86229682,.00201221,55.7572,304.8393,273.7877,85.9718,0,U,38250,999,9596,0,-.77E-6,0
BEIDOU-2 M4 (C12),2012-018B,2026-06-16T14:00:59.327136,1.86229375,.00112916,55.6586,304.1100,275.7806,84.0759,0,U,38251,999,9593,0,-.71E-6,0
SES-5 (EGNOS/PRN 136),2012-036A,2026-06-17T02:43:31.816416,1.00270066,.00017588,0.0486,314.5575,131.9060,224.7707,0,U,38652,999,4445,0,.3E-6,0
BEIDOU-2 M6 (C14),2012-050B,2026-06-17T21:42:41.652864,1.86230869,.00136703,56.5449,62.8706,357.5201,2.5153,0,U,38775,999,9332,0,-.54E-6,0
GSAT-10 (GAGAN/PRN 128),2012-051B,2026-06-17T09:56:28.523328,1.00269883,.00078098,0.0798,262.4016,185.0028,50.3859,0,U,38779,999,5010,0,-.169E-5,0
GPS BIIF-3  (PRN 24),2012-053A,2026-06-17T19:33:14.697216,2.00567437,.01803361,53.5862,143.5736,65.7640,296.0730,0,U,38833,999,9945,0,.4E-6,0
GSAT0103 (GALILEO-FM3),2012-055A,2026-06-17T11:24:53.398656,1.70473345,.00047719,55.8068,101.5377,306.3432,53.5821,0,U,38857,999,8501,0,-.11E-6,0
BEIDOU-2 G6 (C02),2012-059A,2026-06-17T20:45:01.962720,1.00271808,.00095954,4.4232,73.5129,324.1649,263.7310,0,U,38953,999,4991,0,-.183E-5,0
LUCH 5B (SDCM/PRN 125),2012-061A,2026-06-17T23:09:26.595360,1.00272021,.00024527,10.4865,49.8738,151.1367,36.2873,0,U,38977,999,4961,0,-.148E-5,0
COSMOS 2485 (747),2013-019A,2026-06-16T21:50:24.393120,2.13103258,.00231353,65.4195,73.6140,234.1379,125.6814,0,U,39155,999,10227,0,-.2E-6,0
GPS BIIF-4  (PRN 27),2013-023A,2026-06-18T04:19:40.766880,2.00563408,.01415353,54.5032,268.9332,51.0526,310.2390,0,U,39166,999,9590,0,-.36E-6,0
IRNSS-1A,2013-034A,2026-06-09T14:20:49.169184,1.00272948,.00174117,35.7049,63.9797,184.2474,279.8453,0,U,39199,999,4729,0,.7E-6,0
GPS BIIF-5  (PRN 30),2014-008A,2026-06-18T04:22:02.480160,2.00559807,.0084223,53.6548,149.2790,231.2920,127.9245,0,U,39533,999,8970,0,.46E-6,0
ASTRA 5B (EGNOS/PRN 123),2014-011B,2026-06-16T23:23:29.474880,1.00272224,.00018632,0.0707,307.1426,147.0318,185.4434,0,U,39617,999,4466,0,.134E-5,0
COSMOS 2492 (754),2014-012A,2026-06-18T06:38:22.528032,2.13103143,.00103481,65.2971,313.8989,324.5914,35.3281,0,U,39620,999,9526,0,-.55E-6,0
IRNSS-1B,2014-017A,2026-06-17T18:21:55.001952,1.00276545,.00231098,28.9211,240.3934,190.0096,166.2505,0,U,39635,999,4479,0,.118E-5,0
LUCH 5V (SDCM/PRN 141),2014-023A,2026-06-18T03:06:28.033632,1.00274015,.0001826,5.1354,69.7329,49.8424,288.1297,0,U,39727,999,4436,0,-.277E-5,0
GPS BIIF-6  (PRN 06),2014-026A,2026-06-16T23:04:52.888800,2.00560889,.00381679,56.4984,331.5261,326.5610,33.1892,0,U,39741,999,8853,0,-.84E-6,0
COSMOS 2500 (755),2014-032A,2026-06-17T23:27:04.891680,2.13105710,.00073709,65.2318,313.6565,184.7400,175.2410,0,U,40001,999,9347,0,-.54E-6,0
GPS BIIF-7  (PRN 09),2014-045A,2026-06-17T01:17:01.893696,2.00558324,.00332835,55.3532,88.4703,118.2771,242.0574,0,U,40105,999,8607,0,-.21E-6,0
GSAT0201 (GALILEO 5),2014-050A,2026-06-17T10:00:23.303232,1.85519962,.16745574,48.8753,273.4270,179.4035,180.8790,0,U,40128,999,7832,0,-.52E-6,0
GSAT0202 (GALILEO 6),2014-050B,2026-06-18T05:04:29.701632,1.85520552,.16759523,48.8910,272.4799,180.1594,179.8332,0,U,40129,999,8050,0,-.58E-6,0
IRNSS-1C,2014-061A,2026-06-17T18:29:45.091392,1.00269240,.00227099,6.5191,88.9202,2.5065,175.0010,0,U,40269,999,4269,0,-.169E-5,0
GPS BIIF-8  (PRN 03),2014-068A,2026-06-17T22:05:35.381760,2.00576133,.00670716,56.9881,30.9264,70.6155,290.1646,0,U,40294,999,8522,0,-.79E-6,0
COSMOS 2501 (702K),2014-075A,2026-06-17T07:13:01.008768,2.13101233,.00226308,63.6163,190.3680,212.5057,147.4049,0,U,40315,999,8985,0,.63E-6,0
GPS BIIF-9  (PRN 26),2015-013A,2026-06-18T01:25:53.989824,2.00551310,.01095397,53.1678,204.1414,40.1376,320.7317,0,U,40534,999,8184,0,.38E-6,0
GSAT0203 (GALILEO 7),2015-017A,2026-06-15T10:52:25.074336,1.70475984,.00020923,56.7863,341.6427,278.6810,81.2938,0,U,40544,999,6917,0,-.83E-6,0
GSAT0204 (GALILEO 8),2015-017B,2026-06-17T11:14:46.988160,1.70475617,.00019092,56.7938,341.6062,248.2807,111.6927,0,U,40545,999,3225,0,-.91E-6,0
